[{"OBJECT_NAME":"HJS-7D","OBJECT_ID":"2025-209D","EPOCH":"2026-03-09T21:50:23.273376","MEAN_MOTION":13.41454973,"ECCENTRICITY":0.00042824,"INCLINATION":50.0023,"RA_OF_ASC_NODE":2.2713,"ARG_OF_PERICENTER":80.3648,"MEAN_ANOMALY":279.7714,"EPHEMERIS_TYPE":0,"CLASSIFICATION_TYPE":"U","NORAD_CAT_ID":65620,"ELEMENT_SET_NO":999,"REV_AT_EPOCH":2431,"BSTAR":0.00020164979,"MEAN_MOTION_DOT":-1.6e-7,"MEAN_MOTION_DDOT":0},{"OBJECT_NAME":"THORAD AGENA D DEB","OBJECT_ID":"1970-025HH","EPOCH":"2026-03-09T17:22:40.124928","MEAN_MOTION":13.49108879,"ECCENTRICITY":0.00393792,"INCLINATION":99.6215,"RA_OF_ASC_NODE":0.2504,"ARG_OF_PERICENTER":10.7606,"MEAN_ANOMALY":51.5853,"EPHEMERIS_TYPE":0,"CLASSIFICATION_TYPE":"U","NORAD_CAT_ID":4987,"ELEMENT_SET_NO":999,"REV_AT_EPOCH":74966,"BSTAR":0.0002203274,"MEAN_MOTION_DOT":9.6e-7,"MEAN_MOTION_DDOT":0}]
